[{"OBJECT_NAME":"STARLINK-32933","OBJECT_ID":"2025-037F","EPOCH":"2026-03-09T21:39:59.933664","MEAN_MOTION":14.96392117,"ECCENTRICITY":0.00092861,"INCLINATION":70.0032,"RA_OF_ASC_NODE":353.9289,"ARG_OF_PERICENTER":34.0128,"MEAN_ANOMALY":326.1623,"EPHEMERIS_TYPE":0,"CLASSIFICATION_TYPE":"U","NORAD_CAT_ID":63082,"ELEMENT_SET_NO":999,"REV_AT_EPOCH":5857,"BSTAR":-0.11736872,"MEAN_MOTION_DOT":-0.01234595,"MEAN_MOTION_DDOT":0},{"OBJECT_NAME":"CZ-6A DEB","OBJECT_ID":"2022-151XR","EPOCH":"2026-03-07T05:13:23.585376","MEAN_MOTION":14.86365371,"ECCENTRICITY":0.0030591,"INCLINATION":98.768,"RA_OF_ASC_NODE":152.5166,"ARG_OF_PERICENTER":191.5134,"MEAN_ANOMALY":168.5383,"EPHEMERIS_TYPE":0,"CLASSIFICATION_TYPE":"U","NORAD_CAT_ID":55519,"ELEMENT_SET_NO":999,"REV_AT_EPOCH":17058,"BSTAR":0.0071908,"MEAN_MOTION_DOT":0.00064446,"MEAN_MOTION_DDOT":0}]
